[{"OBJECT_NAME":"STARLINK-11619 [DTC]","OBJECT_ID":"2025-053H","EPOCH":"2025-11-29T03:07:38.384832","MEAN_MOTION":15.71019312,"ECCENTRICITY":0.0001676,"INCLINATION":42.9989,"RA_OF_ASC_NODE":358.4109,"ARG_OF_PERICENTER":237.074,"MEAN_ANOMALY":122.9967,"EPHEMERIS_TYPE":0,"CLASSIFICATION_TYPE":"U","NORAD_CAT_ID":63272,"ELEMENT_SET_NO":999,"REV_AT_EPOCH":4185,"BSTAR":0.002893,"MEAN_MOTION_DOT":0.00391735,"MEAN_MOTION_DDOT":0},{"OBJECT_NAME":"STARLINK-11621 [DTC]","OBJECT_ID":"2025-053J","EPOCH":"2025-11-28T18:43:58.700064","MEAN_MOTION":15.70886736,"ECCENTRICITY":0.0001136,"INCLINATION":42.999,"RA_OF_ASC_NODE":0.0703,"ARG_OF_PERICENTER":33.7801,"MEAN_ANOMALY":326.3139,"EPHEMERIS_TYPE":0,"CLASSIFICATION_TYPE":"U","NORAD_CAT_ID":63273,"ELEMENT_SET_NO":999,"REV_AT_EPOCH":4180,"BSTAR":0.0017833,"MEAN_MOTION_DOT":0.00235437,"MEAN_MOTION_DDOT":0},{"OBJECT_NAME":"STARLINK-11615 [DTC]","OBJECT_ID":"2025-053K","EPOCH":"2025-11-28T13:31:15.057408","MEAN_MOTION":15.70998973,"ECCENTRICITY":0.00013875,"INCLINATION":42.9964,"RA_OF_ASC_NODE":1.9041,"ARG_OF_PERICENTER":240.064,"MEAN_ANOMALY":120.009,"EPHEMERIS_TYPE":0,"CLASSIFICATION_TYPE":"U","NORAD_CAT_ID":63274,"ELEMENT_SET_NO":999,"REV_AT_EPOCH":4176,"BSTAR":0.0018823508,"MEAN_MOTION_DOT":0.00250159,"MEAN_MOTION_DDOT":0},{"OBJECT_NAME":"STARLINK-11608 [DTC]","OBJECT_ID":"2025-053L","EPOCH":"2025-11-29T02:44:42.222912","MEAN_MOTION":15.70894772,"ECCENTRICITY":9.5e-5,"INCLINATION":42.9982,"RA_OF_ASC_NODE":358.2855,"ARG_OF_PERICENTER":266.6997,"MEAN_ANOMALY":93.3762,"EPHEMERIS_TYPE":0,"CLASSIFICATION_TYPE":"U","NORAD_CAT_ID":63275,"ELEMENT_SET_NO":999,"REV_AT_EPOCH":4184,"BSTAR":0.0017413,"MEAN_MOTION_DOT":0.00229806,"MEAN_MOTION_DDOT":0},{"OBJECT_NAME":"STARLINK-11623 [DTC]","OBJECT_ID":"2025-053M","EPOCH":"2025-11-29T02:06:39.675744","MEAN_MOTION":15.70976129,"ECCENTRICITY":0.0001231,"INCLINATION":42.9983,"RA_OF_ASC_NODE":358.9667,"ARG_OF_PERICENTER":240.2812,"MEAN_ANOMALY":119.7933,"EPHEMERIS_TYPE":0,"CLASSIFICATION_TYPE":"U","NORAD_CAT_ID":63276,"ELEMENT_SET_NO":999,"REV_AT_EPOCH":4183,"BSTAR":0.0018193,"MEAN_MOTION_DOT":0.00241268,"MEAN_MOTION_DDOT":0},{"OBJECT_NAME":"STARLINK-11612 [DTC]","OBJECT_ID":"2025-053N","EPOCH":"2025-11-29T04:00:01.998720","MEAN_MOTION":16.00181702,"ECCENTRICITY":0.0009409,"INCLINATION":42.9918,"RA_OF_ASC_NODE":354.4932,"ARG_OF_PERICENTER":94.6756,"MEAN_ANOMALY":145.3577,"EPHEMERIS_TYPE":0,"CLASSIFICATION_TYPE":"U","NORAD_CAT_ID":63277,"ELEMENT_SET_NO":999,"REV_AT_EPOCH":597,"BSTAR":0.0011138,"MEAN_MOTION_DOT":0.00600075,"MEAN_MOTION_DDOT":0.0001667},{"OBJECT_NAME":"STARLINK-33660","OBJECT_ID":"2025-053P","EPOCH":"2025-11-28T14:56:56.170176","MEAN_MOTION":15.27582591,"ECCENTRICITY":0.00015702,"INCLINATION":42.9984,"RA_OF_ASC_NODE":92.8051,"ARG_OF_PERICENTER":272.6712,"MEAN_ANOMALY":87.396,"EPHEMERIS_TYPE":0,"CLASSIFICATION_TYPE":"U","NORAD_CAT_ID":63278,"ELEMENT_SET_NO":999,"REV_AT_EPOCH":4073,"BSTAR":0.0011893361,"MEAN_MOTION_DOT":0.00032614,"MEAN_MOTION_DDOT":0},{"OBJECT_NAME":"STARLINK-33611","OBJECT_ID":"2025-053Q","EPOCH":"2025-11-28T07:52:52.791456","MEAN_MOTION":15.27617093,"ECCENTRICITY":0.000247,"INCLINATION":43.0046,"RA_OF_ASC_NODE":90.566,"ARG_OF_PERICENTER":266.4878,"MEAN_ANOMALY":93.5692,"EPHEMERIS_TYPE":0,"CLASSIFICATION_TYPE":"U","NORAD_CAT_ID":63279,"ELEMENT_SET_NO":999,"REV_AT_EPOCH":4084,"BSTAR":0.0012564063,"MEAN_MOTION_DOT":0.00034514,"MEAN_MOTION_DDOT":0},{"OBJECT_NAME":"STARLINK-33646","OBJECT_ID":"2025-053R","EPOCH":"2025-11-28T09:22:39.636192","MEAN_MOTION":15.27588401,"ECCENTRICITY":0.0001257,"INCLINATION":42.999,"RA_OF_ASC_NODE":93.64,"ARG_OF_PERICENTER":254.5386,"MEAN_ANOMALY":105.5327,"EPHEMERIS_TYPE":0,"CLASSIFICATION_TYPE":"U","NORAD_CAT_ID":63280,"ELEMENT_SET_NO":999,"REV_AT_EPOCH":4070,"BSTAR":0.00097070603,"MEAN_MOTION_DOT":0.00026553,"MEAN_MOTION_DDOT":0},{"OBJECT_NAME":"STARLINK-33665","OBJECT_ID":"2025-053S","EPOCH":"2025-11-29T00:32:45.561120","MEAN_MOTION":15.27597986,"ECCENTRICITY":0.0002603,"INCLINATION":42.9965,"RA_OF_ASC_NODE":89.7725,"ARG_OF_PERICENTER":280.8782,"MEAN_ANOMALY":79.1776,"EPHEMERIS_TYPE":0,"CLASSIFICATION_TYPE":"U","NORAD_CAT_ID":63281,"ELEMENT_SET_NO":999,"REV_AT_EPOCH":4080,"BSTAR":0.00088483,"MEAN_MOTION_DOT":0.00024181,"MEAN_MOTION_DDOT":0},{"OBJECT_NAME":"STARLINK-33603","OBJECT_ID":"2025-053T","EPOCH":"2025-11-29T00:27:25.075872","MEAN_MOTION":15.27598919,"ECCENTRICITY":0.0002396,"INCLINATION":42.9983,"RA_OF_ASC_NODE":90.5978,"ARG_OF_PERICENTER":274.9838,"MEAN_ANOMALY":85.0741,"EPHEMERIS_TYPE":0,"CLASSIFICATION_TYPE":"U","NORAD_CAT_ID":63282,"ELEMENT_SET_NO":999,"REV_AT_EPOCH":4079,"BSTAR":0.00085381,"MEAN_MOTION_DOT":0.00023322,"MEAN_MOTION_DDOT":0},{"OBJECT_NAME":"STARLINK-33669","OBJECT_ID":"2025-053U","EPOCH":"2025-11-29T00:43:53.422752","MEAN_MOTION":15.27618778,"ECCENTRICITY":0.0001078,"INCLINATION":42.9987,"RA_OF_ASC_NODE":89.8362,"ARG_OF_PERICENTER":287.6634,"MEAN_ANOMALY":72.41,"EPHEMERIS_TYPE":0,"CLASSIFICATION_TYPE":"U","NORAD_CAT_ID":63283,"ELEMENT_SET_NO":999,"REV_AT_EPOCH":4080,"BSTAR":0.0011758,"MEAN_MOTION_DOT":0.00032275,"MEAN_MOTION_DDOT":0},{"OBJECT_NAME":"STARLINK-33673","OBJECT_ID":"2025-053V","EPOCH":"2025-11-28T23:55:17.383008","MEAN_MOTION":15.27616687,"ECCENTRICITY":0.0003353,"INCLINATION":43.0008,"RA_OF_ASC_NODE":82.6439,"ARG_OF_PERICENTER":280.0107,"MEAN_ANOMALY":80.0366,"EPHEMERIS_TYPE":0,"CLASSIFICATION_TYPE":"U","NORAD_CAT_ID":63284,"ELEMENT_SET_NO":999,"REV_AT_EPOCH":4099,"BSTAR":0.0012541,"MEAN_MOTION_DOT":0.00034452,"MEAN_MOTION_DDOT":0},{"OBJECT_NAME":"STARLINK-33662","OBJECT_ID":"2025-053W","EPOCH":"2025-11-29T01:15:19.753344","MEAN_MOTION":15.27601116,"ECCENTRICITY":0.0001773,"INCLINATION":43.005,"RA_OF_ASC_NODE":90.0014,"ARG_OF_PERICENTER":282.2894,"MEAN_ANOMALY":77.7759,"EPHEMERIS_TYPE":0,"CLASSIFICATION_TYPE":"U","NORAD_CAT_ID":63285,"ELEMENT_SET_NO":999,"REV_AT_EPOCH":4080,"BSTAR":0.00086786,"MEAN_MOTION_DOT":0.00023712,"MEAN_MOTION_DDOT":0},{"OBJECT_NAME":"STARLINK-33613","OBJECT_ID":"2025-053X","EPOCH":"2025-11-28T14:47:41.237664","MEAN_MOTION":15.2760282,"ECCENTRICITY":0.00017676,"INCLINATION":43.0011,"RA_OF_ASC_NODE":92.7572,"ARG_OF_PERICENTER":270.8424,"MEAN_ANOMALY":89.2225,"EPHEMERIS_TYPE":0,"CLASSIFICATION_TYPE":"U","NORAD_CAT_ID":63286,"ELEMENT_SET_NO":999,"REV_AT_EPOCH":4073,"BSTAR":0.001336802,"MEAN_MOTION_DOT":0.00036733,"MEAN_MOTION_DDOT":0},{"OBJECT_NAME":"STARLINK-33680","OBJECT_ID":"2025-053Y","EPOCH":"2025-11-28T15:28:11.353440","MEAN_MOTION":15.2757076,"ECCENTRICITY":0.00030219,"INCLINATION":42.9977,"RA_OF_ASC_NODE":92.105,"ARG_OF_PERICENTER":287.9179,"MEAN_ANOMALY":72.1343,"EPHEMERIS_TYPE":0,"CLASSIFICATION_TYPE":"U","NORAD_CAT_ID":63287,"ELEMENT_SET_NO":999,"REV_AT_EPOCH":4079,"BSTAR":-0.00022265225,"MEAN_MOTION_DOT":-6.383e-5,"MEAN_MOTION_DDOT":0}]
