STARLINK-11619 [DTC]    
1 63272U 25053H   25333.13030538  .00391735  00000+0  28930-2 0  9995
2 63272  42.9989 358.4109 0001676 237.0740 122.9967 15.71019312 41850
STARLINK-11621 [DTC]    
1 63273U 25053J   25332.78054051  .00235437  00000+0  17833-2 0  9998
2 63273  42.9990   0.0703 0001136  33.7801 326.3139 15.70886736 41800
STARLINK-11615 [DTC]    
1 63274U 25053K   25332.56336872  .00250159  00000+0  18824-2 0  9998
2 63274  42.9964   1.9041 0001387 240.0640 120.0090 15.70998973 41766
STARLINK-11608 [DTC]    
1 63275U 25053L   25333.11437758  .00229806  00000+0  17413-2 0  9994
2 63275  42.9982 358.2855 0000950 266.6997  93.3762 15.70894772 41841
STARLINK-11623 [DTC]    
1 63276U 25053M   25333.08795921  .00241268  00000+0  18193-2 0  9992
2 63276  42.9983 358.9667 0001231 240.2812 119.7933 15.70976129 41837
STARLINK-11612 [DTC]    
1 63277U 25053N   25333.16668980  .00600075  16670-3  11138-2 0  9997
2 63277  42.9918 354.4932 0009409  94.6756 145.3577 16.00181702  5978
STARLINK-33660          
1 63278U 25053P   25332.62287234  .00032614  00000+0  11893-2 0  9999
2 63278  42.9984  92.8051 0001570 272.6712  87.3960 15.27582591 40731
STARLINK-33611          
1 63279U 25053Q   25332.32838879  .00034514  00000+0  12564-2 0  9991
2 63279  43.0046  90.5660 0002470 266.4878  93.5692 15.27617093 40847
STARLINK-33646          
1 63280U 25053R   25332.39073653  .00026553  00000+0  97071-3 0  9992
2 63280  42.9990  93.6400 0001257 254.5386 105.5327 15.27588401 40709
STARLINK-33665          
1 63281U 25053S   25333.02274955  .00024181  00000+0  88483-3 0  9994
2 63281  42.9965  89.7725 0002603 280.8782  79.1776 15.27597986 40809
STARLINK-33603          
1 63282U 25053T   25333.01904023  .00023322  00000+0  85381-3 0  9990
2 63282  42.9983  90.5978 0002396 274.9838  85.0741 15.27598919 40798
STARLINK-33669          
1 63283U 25053U   25333.03047943  .00032275  00000+0  11758-2 0  9995
2 63283  42.9987  89.8362 0001078 287.6634  72.4100 15.27618778 40809
STARLINK-33673          
1 63284U 25053V   25332.99672897  .00034452  00000+0  12541-2 0  9992
2 63284  43.0008  82.6439 0003353 280.0107  80.0366 15.27616687 40998
STARLINK-33662          
1 63285U 25053W   25333.05231196  .00023712  00000+0  86786-3 0  9994
2 63285  43.0050  90.0014 0001773 282.2894  77.7759 15.27601116 40809
STARLINK-33613          
1 63286U 25053X   25332.61644951  .00036733  00000+0  13368-2 0  9995
2 63286  43.0011  92.7572 0001767 270.8424  89.2225 15.27602820 40731
STARLINK-33680          
1 63287U 25053Y   25332.64457585 -.00006383  00000+0 -22265-3 0  9991
2 63287  42.9977  92.1050 0003021 287.9179  72.1343 15.27570760 40792
